{
  "type": "FeatureCollection",
  "features": [
    {
      "type": "Feature",
      "properties": {
        "norad_id": 30480,
        "name": "FENGYUN 1C DEB",
        "group": "fengyun-1c-debris",
        "lat": -15.931011515151374,
        "lon": 17.636410253409792,
        "alt_km": 840.3597878841802,
        "timestamp": "2025-12-27T03:58:44.428273+00:00",
        "meta_object_name": "FENGYUN 1C DEB",
        "meta_object_id": "1999-025AGS",
        "meta_epoch": "2025-12-26T12:02:42.067392",
        "meta_mean_motion": 14.33618046,
        "meta_eccentricity": 0.0166782,
        "meta_inclination": 98.2232,
        "meta_ra_of_asc_node": 14.6394,
        "meta_arg_of_pericenter": 104.7693,
        "meta_mean_anomaly": 56.426,
        "meta_ephemeris_type": 0,
        "meta_classification_type": "U",
        "meta_norad_cat_id": 30480,
        "meta_element_set_no": 999,
        "meta_rev_at_epoch": 98865,
        "meta_bstar": 0.00021881,
        "meta_mean_motion_dot": 6.65e-06,
        "meta_mean_motion_ddot": 0,
        "tle_line1": "1 30480U 99025AGS 25360.50187578  .00000665  00000+0  21881-3 0  9996",
        "tle_line2": "2 30480  98.2232  14.6394 0166782 104.7693  56.4260 14.33618046988655"
      },
      "geometry": {
        "type": "Point",
        "coordinates": [
          17.636410253409792,
          -15.931011515151374
        ]
      }
    },
    {
      "type": "Feature",
      "properties": {
        "norad_id": 30481,
        "name": "FENGYUN 1C DEB",
        "group": "fengyun-1c-debris",
        "lat": 21.622043284865114,
        "lon": 14.748852171954804,
        "alt_km": 915.4412664567808,
        "timestamp": "2025-12-27T03:58:44.428282+00:00",
        "meta_object_name": "FENGYUN 1C DEB",
        "meta_object_id": "1999-025AGT",
        "meta_epoch": "2025-12-25T23:47:21.446016",
        "meta_mean_motion": 14.39088092,
        "meta_eccentricity": 0.02233,
        "meta_inclination": 98.3365,
        "meta_ra_of_asc_node": 16.938,
        "meta_arg_of_pericenter": 219.9747,
        "meta_mean_anomaly": 199.7445,
        "meta_ephemeris_type": 0,
        "meta_classification_type": "U",
        "meta_norad_cat_id": 30481,
        "meta_element_set_no": 999,
        "meta_rev_at_epoch": 98674,
        "meta_bstar": 0.00043388,
        "meta_mean_motion_dot": 1.744e-05,
        "meta_mean_motion_ddot": 0,
        "tle_line1": "1 30481U 99025AGT 25359.99122044  .00001744  00000+0  43388-3 0  9990",
        "tle_line2": "2 30481  98.3365  16.9380 0223300 219.9747 199.7445 14.39088092986745"
      },
      "geometry": {
        "type": "Point",
        "coordinates": [
          14.748852171954804,
          21.622043284865114
        ]
      }
    },
    {
      "type": "Feature",
      "properties": {
        "norad_id": 30489,
        "name": "FENGYUN 1C DEB",
        "group": "fengyun-1c-debris",
        "lat": 69.50780622637554,
        "lon": -141.15837939658584,
        "alt_km": 873.2195536371082,
        "timestamp": "2025-12-27T03:58:44.428291+00:00",
        "meta_object_name": "FENGYUN 1C DEB",
        "meta_object_id": "1999-025AHB",
        "meta_epoch": "2025-12-26T19:49:11.342208",
        "meta_mean_motion": 14.15836465,
        "meta_eccentricity": 0.0139269,
        "meta_inclination": 98.4679,
        "meta_ra_of_asc_node": 15.027,
        "meta_arg_of_pericenter": 224.167,
        "meta_mean_anomaly": 314.1524,
        "meta_ephemeris_type": 0,
        "meta_classification_type": "U",
        "meta_norad_cat_id": 30489,
        "meta_element_set_no": 999,
        "meta_rev_at_epoch": 97586,
        "meta_bstar": 0.0002566,
        "meta_mean_motion_dot": 5.12e-06,
        "meta_mean_motion_ddot": 0,
        "tle_line1": "1 30489U 99025AHB 25360.82582572  .00000512  00000+0  25660-3 0  9993",
        "tle_line2": "2 30489  98.4679  15.0270 0139269 224.1670 314.1524 14.15836465975864"
      },
      "geometry": {
        "type": "Point",
        "coordinates": [
          -141.15837939658584,
          69.50780622637554
        ]
      }
    },
    {
      "type": "Feature",
      "properties": {
        "norad_id": 30490,
        "name": "FENGYUN 1C DEB",
        "group": "fengyun-1c-debris",
        "lat": 64.39410110688054,
        "lon": 116.75689729026821,
        "alt_km": 434.2963932277098,
        "timestamp": "2025-12-27T03:58:44.428300+00:00",
        "meta_object_name": "FENGYUN 1C DEB",
        "meta_object_id": "1999-025AHC",
        "meta_epoch": "2025-12-25T14:03:21.692736",
        "meta_mean_motion": 15.31098431,
        "meta_eccentricity": 0.0045274,
        "meta_inclination": 98.3284,
        "meta_ra_of_asc_node": 132.7823,
        "meta_arg_of_pericenter": 69.6514,
        "meta_mean_anomaly": 290.958,
        "meta_ephemeris_type": 0,
        "meta_classification_type": "U",
        "meta_norad_cat_id": 30490,
        "meta_element_set_no": 999,
        "meta_rev_at_epoch": 99692,
        "meta_bstar": 0.0037091,
        "meta_mean_motion_dot": 0.00116504,
        "meta_mean_motion_ddot": 0,
        "tle_line1": "1 30490U 99025AHC 25359.58566774  .00116504  00000+0  37091-2 0  9991",
        "tle_line2": "2 30490  98.3284 132.7823 0045274  69.6514 290.9580 15.31098431996924"
      },
      "geometry": {
        "type": "Point",
        "coordinates": [
          116.75689729026821,
          64.39410110688054
        ]
      }
    },
    {
      "type": "Feature",
      "properties": {
        "norad_id": 30492,
        "name": "FENGYUN 1C DEB",
        "group": "fengyun-1c-debris",
        "lat": -52.976530326837626,
        "lon": 41.92707884543306,
        "alt_km": 711.7126433287758,
        "timestamp": "2025-12-27T03:58:44.428309+00:00",
        "meta_object_name": "FENGYUN 1C DEB",
        "meta_object_id": "1999-025AHE",
        "meta_epoch": "2025-12-26T15:00:00.749088",
        "meta_mean_motion": 14.52193666,
        "meta_eccentricity": 0.009404,
        "meta_inclination": 102.3251,
        "meta_ra_of_asc_node": 24.2848,
        "meta_arg_of_pericenter": 25.5095,
        "meta_mean_anomaly": 335.0683,
        "meta_ephemeris_type": 0,
        "meta_classification_type": "U",
        "meta_norad_cat_id": 30492,
        "meta_element_set_no": 999,
        "meta_rev_at_epoch": 97096,
        "meta_bstar": 0.0031255,
        "meta_mean_motion_dot": 0.00013376,
        "meta_mean_motion_ddot": 0,
        "tle_line1": "1 30492U 99025AHE 25360.62500867  .00013376  00000+0  31255-2 0  9990",
        "tle_line2": "2 30492 102.3251  24.2848 0094040  25.5095 335.0683 14.52193666970967"
      },
      "geometry": {
        "type": "Point",
        "coordinates": [
          41.92707884543306,
          -52.976530326837626
        ]
      }
    },
    {
      "type": "Feature",
      "properties": {
        "norad_id": 30493,
        "name": "FENGYUN 1C DEB",
        "group": "fengyun-1c-debris",
        "lat": 76.77043610462724,
        "lon": 150.5350514081638,
        "alt_km": 924.145301190224,
        "timestamp": "2025-12-27T03:58:44.428319+00:00",
        "meta_object_name": "FENGYUN 1C DEB",
        "meta_object_id": "1999-025AHF",
        "meta_epoch": "2025-12-26T07:44:55.612032",
        "meta_mean_motion": 13.93067144,
        "meta_eccentricity": 0.0180533,
        "meta_inclination": 98.5722,
        "meta_ra_of_asc_node": 189.6643,
        "meta_arg_of_pericenter": 179.1588,
        "meta_mean_anomaly": 357.8198,
        "meta_ephemeris_type": 0,
        "meta_classification_type": "U",
        "meta_norad_cat_id": 30493,
        "meta_element_set_no": 999,
        "meta_rev_at_epoch": 95284,
        "meta_bstar": 0.0024719,
        "meta_mean_motion_dot": 3.639e-05,
        "meta_mean_motion_ddot": 0,
        "tle_line1": "1 30493U 99025AHF 25360.32286588  .00003639  00000+0  24719-2 0  9997",
        "tle_line2": "2 30493  98.5722 189.6643 0180533 179.1588 357.8198 13.93067144952847"
      },
      "geometry": {
        "type": "Point",
        "coordinates": [
          150.5350514081638,
          76.77043610462724
        ]
      }
    },
    {
      "type": "Feature",
      "properties": {
        "norad_id": 30494,
        "name": "FENGYUN 1C DEB",
        "group": "fengyun-1c-debris",
        "lat": 13.429008383153636,
        "lon": 34.02666230823883,
        "alt_km": 1101.7537097332743,
        "timestamp": "2025-12-27T03:58:44.428328+00:00",
        "meta_object_name": "FENGYUN 1C DEB",
        "meta_object_id": "1999-025AHG",
        "meta_epoch": "2025-12-26T08:45:41.685984",
        "meta_mean_motion": 13.79412088,
        "meta_eccentricity": 0.0186272,
        "meta_inclination": 99.2815,
        "meta_ra_of_asc_node": 35.4794,
        "meta_arg_of_pericenter": 186.267,
        "meta_mean_anomaly": 173.6149,
        "meta_ephemeris_type": 0,
        "meta_classification_type": "U",
        "meta_norad_cat_id": 30494,
        "meta_element_set_no": 999,
        "meta_rev_at_epoch": 94674,
        "meta_bstar": 0.0013009,
        "meta_mean_motion_dot": 1.48e-05,
        "meta_mean_motion_ddot": 0,
        "tle_line1": "1 30494U 99025AHG 25360.36506581  .00001480  00000+0  13009-2 0  9992",
        "tle_line2": "2 30494  99.2815  35.4794 0186272 186.2670 173.6149 13.79412088946748"
      },
      "geometry": {
        "type": "Point",
        "coordinates": [
          34.02666230823883,
          13.429008383153636
        ]
      }
    }
  ]
}